OBJECT_NAME,OBJECT_ID,EPOCH,MEAN_MOTION,ECCENTRICITY,INCLINATION,RA_OF_ASC_NODE,ARG_OF_PERICENTER,MEAN_ANOMALY,EPHEMERIS_TYPE,CLASSIFICATION_TYPE,NORAD_CAT_ID,ELEMENT_SET_NO,REV_AT_EPOCH,BSTAR,MEAN_MOTION_DOT,MEAN_MOTION_DDOT
PERSEUS-M1,2014-033AF,2026-06-23T19:02:20.121216,14.95650723,.00098612,97.9645,119.0334,276.3983,83.6114,0,U,40039,999,65162,.16003567E-3,.1719E-4,0
POLYITAN-1,2014-033AJ,2026-06-24T00:50:13.775424,15.33465323,.00088931,98.0940,201.9440,122.2439,237.9664,0,U,40042,999,65464,.53438369E-3,.17236E-3,0
TIGRISAT,2014-033AK,2026-06-24T01:19:39.641088,14.85183595,.00502859,97.7839,324.9096,53.2196,307.3618,0,U,40043,999,64664,.17944068E-3,.1517E-4,0
AEROCUBE 6A,2014-033AM,2026-06-24T04:05:03.868224,14.98159364,.00383487,97.7240,342.0460,353.9157,6.1594,0,U,40045,999,64766,.29900126E-3,.3537E-4,0
AEROCUBE 6B,2014-033AN,2026-06-24T03:58:37.905600,14.99622054,.00378517,97.7238,341.8474,344.9715,15.0380,0,U,40046,999,64780,.3147498E-3,.3872E-4,0
CANX-4,2014-034C,2026-06-24T04:15:03.479040,14.81275359,.00126307,98.3115,50.7465,355.0612,5.0473,0,U,40055,999,64556,.10434447E-3,.757E-5,0
CANX-5,2014-034D,2026-06-24T04:12:41.071968,14.81292661,.0012633,98.3117,50.7888,355.2457,4.8632,0,U,40056,999,63637,.10518958E-3,.764E-5,0
UKUBE-1,2014-037F,2026-06-24T05:48:17.720064,15.13646416,.00030087,98.4237,179.2549,121.9469,238.2053,0,U,40074,999,64962,.39798959E-3,.7078E-4,0
BRITE-PL2 (HEWELIUSZ),2014-049B,2026-06-24T04:50:49.659360,14.94617811,.00154332,97.9104,287.2561,87.1932,273.1054,0,U,40119,999,64249,.17421257E-3,.1831E-4,0
AEROCUBE 5C,2015-058B,2026-06-23T14:35:18.207168,14.91475670,.01310576,64.7657,242.6157,60.7723,300.6421,0,U,40965,999,36661,.14558477E-3,.154E-4,0
AEROCUBE 7,2015-058C,2026-06-24T04:30:06.126624,14.95758484,.01208247,64.7611,222.8885,58.9205,302.3700,0,U,40966,999,36700,.20428774E-3,.246E-4,0
FOX-1A (AO-85),2015-058D,2026-06-23T22:13:10.891200,14.90994015,.01308506,64.7750,258.0417,53.9672,307.3482,0,U,40967,999,11457,.15604053E-3,.164E-4,0
SINOD-D 1,2015-058E,2026-06-23T21:32:04.403616,14.95937911,.01194997,64.7742,237.8988,50.4270,310.7326,0,U,40968,999,11766,.19379601E-3,.2328E-4,0
SNAP-3 ALICE,2015-058G,2026-06-24T02:14:51.165600,15.61640104,.00260487,64.7505,80.0319,8.3240,351.8334,0,U,40970,999,11796,.14604538E-2,.130456E-2,0
LMRST-SAT,2015-058H,2026-06-23T14:44:51.315648,14.90610757,.01324307,64.7747,255.3597,56.1235,305.2393,0,U,40971,999,11451,.13592499E-3,.1395E-4,0
SNAP-3 EDDIE,2015-058J,2026-06-24T01:52:25.971168,15.62879749,.00259585,64.7419,70.7577,11.7568,348.4180,0,U,40972,999,12010,.13354535E-2,.125096E-2,0
PROPCUBE 3,2015-058K,2026-06-23T13:36:59.600736,14.94283146,.01243935,64.7675,232.6013,57.3922,303.9127,0,U,40973,999,11575,.16194962E-3,.1847E-4,0
BISONSAT,2015-058L,2026-06-24T03:45:15.679872,15.16339469,.00799009,64.7575,151.1094,44.4363,316.3134,0,U,40974,999,11667,.60156943E-3,.12529E-3,0
SNAP-3 JIMI,2015-058M,2026-06-24T07:29:12.579360,15.02351468,.01065987,64.7634,197.2287,52.4772,308.5975,0,U,40975,999,11529,.30987581E-3,.4462E-4,0
PROPCUBE 1 (FLORA),2015-058N,2026-06-23T23:28:38.820576,14.89246131,.01311138,64.7740,274.1884,58.2861,303.0953,0,U,40976,999,11727,.15689278E-3,.1571E-4,0
SINOD-D 3,2015-058P,2026-06-23T22:26:02.151168,14.94048063,.01196491,64.7721,254.7482,55.4465,305.7871,0,U,40977,999,11576,.1950537E-3,.2223E-4,0
HORYU-4,2016-012D,2026-06-23T23:45:34.171776,16.02876196,.00079968,30.9834,28.8335,314.6456,45.3555,0,U,41340,999,57190,.11006997E-2,.706661E-2,.22540502E-3
RAVAN,2016-067B,2026-06-24T04:28:51.299904,15.55287518,.00033091,97.9882,65.5694,7.4434,352.6867,0,U,41849,999,52878,.7091668E-3,.48165E-3,0
CELTEE 1,2016-067C,2026-06-23T14:15:14.898816,15.19733223,.00013155,98.0670,41.5977,128.9845,231.1505,0,U,41850,999,52685,.19016328E-3,.3986E-4,0
OPTICUBE 04,2016-067D,2026-06-24T04:06:34.839648,15.09685239,.00170205,98.0695,27.8191,93.8897,266.4277,0,U,41851,999,52622,.10939946E-3,.1696E-4,0
AEROCUBE 8D,2016-067E,2026-06-24T04:17:45.243168,15.24480340,.00049451,98.0680,45.8820,106.5143,253.6636,0,U,41852,999,52713,.27532501E-3,.6686E-4,0
AEROCUBE 8C,2016-067F,2026-06-24T03:17:34.916352,15.24729960,.00062372,98.0553,43.0557,49.7280,310.4500,0,U,41853,999,52712,.26629037E-3,.6513E-4,0
CORVUS BC2,2017-042X,2026-06-24T04:04:39.953568,15.06336659,.0014797,97.4075,336.2486,88.9968,271.2955,0,U,42846,999,48811,.18686131E-3,.2695E-4,0
CORVUS BC1,2017-042Y,2026-06-24T03:55:47.050464,15.06499999,.0013381,97.4102,337.0614,68.2921,291.9730,0,U,42847,999,48814,.1531632E-3,.2207E-4,0
MAKERSAT 0,2017-073D,2026-06-23T15:29:28.236480,15.32275781,.01048567,97.4621,57.2152,249.5542,109.4417,0,U,43016,999,46745,.3471552E-3,.12795E-3,0
