PERSEUS-M1              
1 40039U 14033AF  26174.79328844  .00001719  00000+0  16004-3 0  9993
2 40039  97.9645 119.0334 0009861 276.3983  83.6114 14.95650723651626
POLYITAN-1              
1 40042U 14033AJ  26175.03488166  .00017236  00000+0  53438-3 0  9992
2 40042  98.0940 201.9440 0008893 122.2439 237.9664 15.33465323654640
TIGRISAT                
1 40043U 14033AK  26175.05531992  .00001517  00000+0  17944-3 0  9998
2 40043  97.7839 324.9096 0050285  53.2196 307.3618 14.85183595646648
AEROCUBE 6A             
1 40045U 14033AM  26175.17018366  .00003537  00000+0  29900-3 0  9997
2 40045  97.7240 342.0460 0038348 353.9157   6.1594 14.98159364647666
AEROCUBE 6B             
1 40046U 14033AN  26175.16571650  .00003872  00000+0  31475-3 0  9999
2 40046  97.7238 341.8474 0037851 344.9715  15.0380 14.99622054647804
CANX-4                  
1 40055U 14034C   26175.17712360  .00000757  00000+0  10434-3 0  9997
2 40055  98.3115  50.7465 0012630 355.0612   5.0473 14.81275359645564
CANX-5                  
1 40056U 14034D   26175.17547537  .00000764  00000+0  10519-3 0  9992
2 40056  98.3117  50.7888 0012633 355.2457   4.8632 14.81292661636376
UKUBE-1                 
1 40074U 14037F   26175.24187176  .00007078  00000+0  39799-3 0  9998
2 40074  98.4237 179.2549 0003008 121.9469 238.2053 15.13646416649627
BRITE-PL2 (HEWELIUSZ)   
1 40119U 14049B   26175.20196365  .00001831  00000+0  17421-3 0  9996
2 40119  97.9104 287.2561 0015433  87.1932 273.1054 14.94617811642493
AEROCUBE 5C             
1 40965U 15058B   26174.60784962  .00001540  00000+0  14558-3 0  9990
2 40965  64.7657 242.6157 0131057  60.7723 300.6421 14.91475670366612
AEROCUBE 7              
1 40966U 15058C   26175.18757091  .00002460  00000+0  20429-3 0  9994
2 40966  64.7611 222.8885 0120824  58.9205 302.3700 14.95758484367009
FOX-1A (AO-85)          
1 40967U 15058D   26174.92582050  .00001640  00000+0  15604-3 0  9995
2 40967  64.7750 258.0417 0130850  53.9672 307.3482 14.90994015114570
SINOD-D 1               
1 40968U 15058E   26174.89727319  .00002328  00000+0  19380-3 0  9990
2 40968  64.7742 237.8988 0119499  50.4270 310.7326 14.95937911117667
SNAP-3 ALICE            
1 40970U 15058G   26175.09364775  .00130456  00000+0  14605-2 0  9997
2 40970  64.7505  80.0319 0026048   8.3240 351.8334 15.61640104117966
LMRST-SAT               
1 40971U 15058H   26174.61448282  .00001395  00000+0  13592-3 0  9995
2 40971  64.7747 255.3597 0132430  56.1235 305.2393 14.90610757114516
SNAP-3 EDDIE            
1 40972U 15058J   26175.07807837  .00125096  00000+0  13355-2 0  9993
2 40972  64.7419  70.7577 0025958  11.7568 348.4180 15.62879749120105
PROPCUBE 3              
1 40973U 15058K   26174.56735649  .00001847  00000+0  16195-3 0  9991
2 40973  64.7675 232.6013 0124393  57.3922 303.9127 14.94283146115753
BISONSAT                
1 40974U 15058L   26175.15643148  .00012529  00000+0  60157-3 0  9996
2 40974  64.7575 151.1094 0079900  44.4363 316.3134 15.16339469116679
SNAP-3 JIMI             
1 40975U 15058M   26175.31195115  .00004462  00000+0  30988-3 0  9997
2 40975  64.7634 197.2287 0106598  52.4772 308.5975 15.02351468115299
PROPCUBE 1 (FLORA)      
1 40976U 15058N   26174.97822709  .00001571  00000+0  15689-3 0  9994
2 40976  64.7740 274.1884 0131113  58.2861 303.0953 14.89246131117270
SINOD-D 3               
1 40977U 15058P   26174.93474712  .00002223  00000+0  19505-3 0  9994
2 40977  64.7721 254.7482 0119649  55.4465 305.7871 14.94048063115767
HORYU-4                 
1 41340U 16012D   26174.98997884  .00706661  22541-3  11007-2 0  9998
2 41340  30.9834  28.8335 0007996 314.6456  45.3555 16.02876196571905
RAVAN                   
1 41849U 16067B   26175.18670486  .00048165  00000+0  70917-3 0  9997
2 41849  97.9882  65.5694 0003309   7.4434 352.6867 15.55287518528787
CELTEE 1                
1 41850U 16067C   26174.59392244  .00003986  00000+0  19016-3 0  9991
2 41850  98.0670  41.5977 0001315 128.9845 231.1505 15.19733223526859
OPTICUBE 04             
1 41851U 16067D   26175.17123657  .00001696  00000+0  10940-3 0  9990
2 41851  98.0695  27.8191 0017020  93.8897 266.4277 15.09685239526229
AEROCUBE 8D             
1 41852U 16067E   26175.17899587  .00006686  00000+0  27533-3 0  9993
2 41852  98.0680  45.8820 0004945 106.5143 253.6636 15.24480340527132
AEROCUBE 8C             
1 41853U 16067F   26175.13720968  .00006513  00000+0  26629-3 0  9990
2 41853  98.0553  43.0557 0006237  49.7280 310.4500 15.24729960527120
CORVUS BC2              
1 42846U 17042X   26175.16990687  .00002695  00000+0  18686-3 0  9998
2 42846  97.4075 336.2486 0014797  88.9968 271.2955 15.06336659488113
CORVUS BC1              
1 42847U 17042Y   26175.16373901  .00002207  00000+0  15316-3 0  9999
2 42847  97.4102 337.0614 0013381  68.2921 291.9730 15.06499999488145
MAKERSAT 0              
1 43016U 17073D   26174.64546570  .00012795  00000+0  34716-3 0  9996
2 43016  97.4621  57.2152 0104856 249.5542 109.4417 15.32275781467455
